IRIDIUM 26              
1 24903U 97043A   25298.80108042  .00000658  00000+0  21428-3 0  9998
2 24903  86.3962  55.7024 0002128  87.6308 272.5133 14.37265859475506
IRIDIUM 22              
1 24907U 97043E   25298.83929837  .00000596  00000+0  19837-3 0  9990
2 24907  86.3960  59.3390 0001970  91.0761 269.0661 14.36065965475524
DUMMY MASS 1            
1 24925U 97048A   25298.82985416  .00000740  00000+0  79291-4 0  9991
2 24925  86.3321  74.8735 0008425  55.0355 305.1660 14.87114069524545
DUMMY MASS 2            
1 24926U 97048B   25298.81380563  .00000727  00000+0  78311-4 0  9990
2 24926  86.3319  76.5137 0009436  63.4559 296.7632 14.86864917524312
IRIDIUM 29              
1 24944U 97051A   25298.81518525  .00000710  00000+0  23495-3 0  9999
2 24944  86.3912  89.0679 0001960  95.4216 264.7205 14.36591535472029
IRIDIUM 33              
1 24946U 97051C   25298.87173676  .00000550  00000+0  18624-3 0  9991
2 24946  86.3829  88.3162 0008516  25.6436 334.5181 14.34983302471483
IRIDIUM 28              
1 24948U 97051E   25298.84544926  .00000673  00000+0  21850-3 0  9991
2 24948  86.3921  86.4943 0002262  77.1410 283.0041 14.37496895472618
IRIDIUM 36              
1 24967U 97056C   25298.85787002  .00000593  00000+0  19092-3 0  9998
2 24967  86.3927 118.1236 0001965  82.0787 278.0634 14.37717220470993
